[{"OBJECT_NAME":"STARLINK-32630","OBJECT_ID":"2024-216R","EPOCH":"2026-03-09T21:32:06.720864","MEAN_MOTION":15.27598629,"ECCENTRICITY":7.783e-5,"INCLINATION":42.9967,"RA_OF_ASC_NODE":262.3914,"ARG_OF_PERICENTER":339.1812,"MEAN_ANOMALY":20.9008,"EPHEMERIS_TYPE":0,"CLASSIFICATION_TYPE":"U","NORAD_CAT_ID":62047,"ELEMENT_SET_NO":999,"REV_AT_EPOCH":7382,"BSTAR":0.00086882533,"MEAN_MOTION_DOT":0.00023737,"MEAN_MOTION_DDOT":0},{"OBJECT_NAME":"ARCSTONE","OBJECT_ID":"2025-135N","EPOCH":"2026-03-09T21:21:29.017152","MEAN_MOTION":15.28638458,"ECCENTRICITY":0.00041199,"INCLINATION":97.4495,"RA_OF_ASC_NODE":185.9194,"ARG_OF_PERICENTER":166.7863,"MEAN_ANOMALY":193.3485,"EPHEMERIS_TYPE":0,"CLASSIFICATION_TYPE":"U","NORAD_CAT_ID":64540,"ELEMENT_SET_NO":999,"REV_AT_EPOCH":3984,"BSTAR":0.00094899777,"MEAN_MOTION_DOT":0.00026427,"MEAN_MOTION_DDOT":0}]
